{"fetched_at":"2026-03-30T06:02:59Z","count":15439,"tles":[{"name":"STARLINK-32901","line1":"1 62895U 25024S   26087.75931645  .00023265  00000+0  85154-3 0  9999","line2":"2 62895  42.9998 217.5606 0001460 262.3272  97.7414 15.27608989 65182","category":"Starlink"}]}