{
  "norad_id": 62895,
  "name": "STARLINK-32901",
  "history": [
    {
      "epoch": "2026-03-28T18:13:24.941280",
      "apogee_km": 483.96422024751246,
      "perigee_km": 481.9603675877306,
      "latitude_deg": -42.99558421256676,
      "longitude_deg": -177.60562080005184,
      "semi_major_axis_km": 6861.099293917621,
      "eccentricity": 0.00014603,
      "inclination_deg": 42.9998,
      "raan_deg": 217.5606,
      "arg_perigee_deg": 262.3272,
      "mean_anomaly_deg": 97.7414,
      "mean_motion_rev_day": 15.27608989
    }
  ]
}